{
"type": "FeatureCollection",
"name": "river_ice",
"crs": { "type": "name", "properties": { "name": "urn:ogc:def:crs:OGC:1.3:CRS84" } },
"features": [
{ "type": "Feature", "properties": { }, "geometry": { "type": "Polygon", "coordinates": [ [ [ -81.611364642396708, 52.28847484850057 ], [ -81.611357217204102, 52.287935448240518 ], [ -81.611064018402757, 52.287936965651468 ], [ -81.611071440034863, 52.288476365940852 ], [ -81.611364642396708, 52.28847484850057 ] ] ] } },
{ "type": "Feature", "properties": { }, "geometry": { "type": "Polygon", "coordinates": [ [ [ -81.611645463607644, 52.287574329919963 ], [ -81.611933705342224, 52.287213210888382 ], [ -81.61252009326823, 52.287210171049914 ], [ -81.612517613613292, 52.287030370968857 ], [ -81.613101517059093, 52.286847528171641 ], [ -81.613089107439222, 52.285948527752588 ], [ -81.61338229300388, 52.285947005354629 ], [ -81.613377326965434, 52.285587405167512 ], [ -81.613961207916404, 52.285404558145167 ], [ -81.613956237288235, 52.285044957963763 ], [ -81.61424941684129, 52.285043433431554 ], [ -81.614246930379849, 52.284863633342297 ], [ -81.614540108720121, 52.284862108092142 ], [ -81.61453762109825, 52.28468230800712 ], [ -81.614830798225782, 52.28468078203904 ], [ -81.615118995415614, 52.284319655195709 ], [ -81.616291694066305, 52.284313541213521 ], [ -81.616294188755191, 52.284493341250652 ], [ -81.616880540296222, 52.284490279873324 ], [ -81.616878043234223, 52.284310479855925 ], [ -81.616584868663395, 52.284312010898596 ], [ -81.616579876991281, 52.283952410827268 ], [ -81.616286704767276, 52.283953941122469 ], [ -81.616271737500156, 52.282875140715163 ], [ -81.615978572368846, 52.282876670223494 ], [ -81.615971092648905, 52.282337269914791 ], [ -81.615677931050669, 52.282338798665855 ], [ -81.615660487593573, 52.281080197680915 ], [ -81.615367334273742, 52.281081725635353 ], [ -81.615357371905986, 52.28036252491016 ], [ -81.615650520480628, 52.2803609969951 ], [ -81.615635570597661, 52.279282195798665 ], [ -81.61621935950555, 52.279099337704558 ], [ -81.616211877879564, 52.27855993707319 ], [ -81.616795654925753, 52.278377076144871 ], [ -81.61679066261425, 52.278017475724269 ], [ -81.6170837956371, 52.278015944299263 ], [ -81.617081298334639, 52.27783614409045 ], [ -81.617374430145134, 52.277834611947725 ], [ -81.61737193168284, 52.277654811743176 ], [ -81.617665062280935, 52.277653278882774 ], [ -81.61766256265885, 52.277473478682509 ], [ -81.617955692044575, 52.277471945104402 ], [ -81.617953191262714, 52.277292144908444 ], [ -81.618246319436054, 52.277290610612638 ], [ -81.618243817494445, 52.277110810420972 ], [ -81.6185369444554, 52.277109275407497 ], [ -81.618825062841637, 52.276748139305916 ], [ -81.619411311887688, 52.276745065680778 ], [ -81.619406298700611, 52.276385465337476 ], [ -81.619113176562792, 52.276387002494012 ], [ -81.619108165853191, 52.276027402108532 ], [ -81.618815046060973, 52.276028938517733 ], [ -81.618812541931675, 52.275849138306718 ], [ -81.618519423299119, 52.275850673978489 ], [ -81.618521926242437, 52.276030474199402 ], [ -81.618228806397553, 52.276032009153532 ], [ -81.61794068774806, 52.27639314384475 ], [ -81.616768198512403, 52.276399273554794 ], [ -81.616773190351211, 52.276758874076037 ], [ -81.616480065604591, 52.276760404704419 ], [ -81.616485055176355, 52.277120005223018 ], [ -81.616191928031412, 52.277121535143564 ], [ -81.616196915336033, 52.277481135659514 ], [ -81.61590378579271, 52.277482664872196 ], [ -81.615908770830103, 52.277842265385502 ], [ -81.615615638888372, 52.277843793890312 ], [ -81.615620621658408, 52.278203394400947 ], [ -81.615327487318254, 52.278204922197858 ], [ -81.615332467820863, 52.278564522705814 ], [ -81.615039331082201, 52.278566049794833 ], [ -81.615056755363284, 52.279824651465447 ], [ -81.614763610295043, 52.279826177895707 ], [ -81.614788492488316, 52.281624179905464 ], [ -81.614495335530847, 52.281625705706396 ], [ -81.614507771677282, 52.282524706550795 ], [ -81.614214608761642, 52.282526231673174 ], [ -81.614224553404043, 52.283245432287387 ], [ -81.613931385716427, 52.283246956721371 ], [ -81.613648153571575, 52.28396768103093 ], [ -81.613354981085649, 52.283969204048724 ], [ -81.613357463856673, 52.284149004195392 ], [ -81.612773596857451, 52.284331848228049 ], [ -81.612781038286201, 52.284871248676588 ], [ -81.612487859789113, 52.284872769560138 ], [ -81.612492818498907, 52.285232369850839 ], [ -81.612199637602515, 52.28523389002622 ], [ -81.612207072302979, 52.285773290449711 ], [ -81.611913887820592, 52.285774809926693 ], [ -81.612216985601989, 52.286492490936105 ], [ -81.611923796372878, 52.286494010452245 ], [ -81.611926273576103, 52.286673810569667 ], [ -81.611342367522113, 52.286856647569508 ], [ -81.61135226720593, 52.287575848039211 ], [ -81.611645463607644, 52.287574329919963 ] ] ] } },
{ "type": "Feature", "properties": { }, "geometry": { "type": "Polygon", "coordinates": [ [ [ -81.624647104454638, 52.273840471587818 ], [ -81.624644576925121, 52.273660671508551 ], [ -81.625230784590826, 52.273657569121241 ], [ -81.625228254716305, 52.273477769056377 ], [ -81.625521357323436, 52.273476216781532 ], [ -81.625809395491629, 52.273115063672698 ], [ -81.627274896136555, 52.273107287849342 ], [ -81.627272358041552, 52.272927487837812 ], [ -81.627565456904733, 52.272925930500804 ], [ -81.627562917650692, 52.272746130493701 ], [ -81.628149112925385, 52.272743013657447 ], [ -81.628146571326582, 52.272563213664831 ], [ -81.627267281931651, 52.272567887797941 ], [ -81.62726981997325, 52.272747687820669 ], [ -81.625804331185861, 52.272755463543817 ], [ -81.625806863325437, 52.27293526361106 ], [ -81.624927566175998, 52.272939920345607 ], [ -81.624639521945866, 52.273301071333243 ], [ -81.622880912540552, 52.273310360916199 ], [ -81.622883432902157, 52.273490161066512 ], [ -81.620541120292771, 52.273682306743105 ], [ -81.620543631220869, 52.273862106961772 ], [ -81.624647104454638, 52.273840471587818 ] ] ] } },
{ "type": "Feature", "properties": { }, "geometry": { "type": "Polygon", "coordinates": [ [ [ -81.633429991537795, 52.273074430796633 ], [ -81.633427428541935, 52.272894630996788 ], [ -81.634306723359742, 52.272889910974285 ], [ -81.63430159033453, 52.272530311418649 ], [ -81.634008494460375, 52.272531885466648 ], [ -81.634005929173966, 52.272352085670292 ], [ -81.633419739716118, 52.272355231563708 ], [ -81.633422302631089, 52.272535031380329 ], [ -81.632838671264466, 52.272717974215553 ], [ -81.632843792486241, 52.273077573861336 ], [ -81.633429991537795, 52.273074430796633 ] ] ] } },
{ "type": "Feature", "properties": { }, "geometry": { "type": "Polygon", "coordinates": [ [ [ -81.629316410497168, 52.272377171345227 ], [ -81.629313864209024, 52.272197371381637 ], [ -81.628434582249284, 52.272202054183666 ], [ -81.628437124980323, 52.272381854177432 ], [ -81.629316410497168, 52.272377171345227 ] ] ] } },
{ "type": "Feature", "properties": { }, "geometry": { "type": "Polygon", "coordinates": [ [ [ -81.616715790545683, 52.272623466731417 ], [ -81.616708304638379, 52.272084065555347 ], [ -81.617001398526241, 52.272082534455933 ], [ -81.616996405681249, 52.271722933663682 ], [ -81.617580089880946, 52.27154006893727 ], [ -81.617575092450906, 52.271180468150938 ], [ -81.617282004543952, 52.271182000655834 ], [ -81.617284502060187, 52.27136180106168 ], [ -81.616991412941303, 52.271363332849035 ], [ -81.616993909298145, 52.271543133259158 ], [ -81.616700818967345, 52.271544664328971 ], [ -81.616703314164781, 52.27172446474335 ], [ -81.616410222622065, 52.271725995095615 ], [ -81.616412716660051, 52.271905795514272 ], [ -81.61582902281738, 52.272088654488989 ], [ -81.615834006281688, 52.272448255337764 ], [ -81.616127102619686, 52.272446726400943 ], [ -81.616129595576894, 52.272626526807088 ], [ -81.616715790545683, 52.272623466731417 ] ] ] } },
{ "type": "Feature", "properties": { }, "geometry": { "type": "Polygon", "coordinates": [ [ [ -81.572784621635549, 52.298198320056485 ], [ -81.573073248438078, 52.297837295422887 ], [ -81.574539579139582, 52.297830171717223 ], [ -81.574537252345522, 52.297650370725513 ], [ -81.575123782079743, 52.297647516164822 ], [ -81.575121452935136, 52.297467715185938 ], [ -81.576587770903927, 52.297460566088304 ], [ -81.576585435846368, 52.297280765149893 ], [ -81.577171960486936, 52.297277900432555 ], [ -81.577169623078987, 52.297098099507039 ], [ -81.578342667314914, 52.297092361372108 ], [ -81.578340325181699, 52.296912560477999 ], [ -81.578926844776873, 52.296909687060463 ], [ -81.578924500293382, 52.296729886179293 ], [ -81.579804275938685, 52.296725570620104 ], [ -81.579801927917558, 52.296545769761167 ], [ -81.580974957015499, 52.296540005526182 ], [ -81.580972604269377, 52.296360204698807 ], [ -81.581852372270589, 52.296355873905618 ], [ -81.581850015986987, 52.296176073100582 ], [ -81.582436525488987, 52.296173182283368 ], [ -81.582434166855379, 52.295993381491378 ], [ -81.583313927359981, 52.295989039832996 ], [ -81.583602454120026, 52.295627989631306 ], [ -81.584482207201944, 52.295623639292195 ], [ -81.584479840331269, 52.295443838548813 ], [ -81.585652839342259, 52.295438027941323 ], [ -81.585650467747101, 52.295258227229809 ], [ -81.587703206743456, 52.295248030702446 ], [ -81.587700826861962, 52.295068230051051 ], [ -81.590340050224441, 52.295055067895689 ], [ -81.590342440791915, 52.295234868462259 ], [ -81.593861416351501, 52.295217227075085 ], [ -81.593863821192187, 52.295397027522377 ], [ -81.594450319139725, 52.295394077079564 ], [ -81.594447911924334, 52.295214276651286 ], [ -81.595034407395858, 52.295211323315314 ], [ -81.595036816985896, 52.295391123724563 ], [ -81.598849050508989, 52.295371855932508 ], [ -81.598851475559883, 52.295551656212005 ], [ -81.599437975017509, 52.29554868099644 ], [ -81.599435547591938, 52.295368880736127 ], [ -81.600608541451152, 52.295362921606831 ], [ -81.600610973626104, 52.295542721828745 ], [ -81.60119747277686, 52.295539737876595 ], [ -81.601195038227232, 52.295359937673915 ], [ -81.605887008737838, 52.295335961372366 ], [ -81.605884555216662, 52.295156161318602 ], [ -81.609403514516444, 52.295138056898125 ], [ -81.609401046773385, 52.294958256955447 ], [ -81.610280782452904, 52.294953714498796 ], [ -81.610283253757871, 52.295133514412193 ], [ -81.610869746455464, 52.295130482448073 ], [ -81.610867272775891, 52.294950682554223 ], [ -81.613799722826784, 52.294935479149551 ], [ -81.613797237300361, 52.294755679348086 ], [ -81.617022916274394, 52.294738871624034 ], [ -81.61702041771413, 52.294559071925299 ], [ -81.620539322354645, 52.294540635878143 ], [ -81.620536809573593, 52.294360836292626 ], [ -81.62522865750411, 52.29433609198049 ], [ -81.625226125753699, 52.294156292548841 ], [ -81.626399081923594, 52.294150077390512 ], [ -81.626401618422932, 52.294329876782108 ], [ -81.627281338831807, 52.294325207739242 ], [ -81.627278798770774, 52.294145408377723 ], [ -81.627572037666368, 52.294143850584135 ], [ -81.627860191744517, 52.293782693362907 ], [ -81.629030590350581, 52.29359665275895 ], [ -81.629318729022003, 52.293235491994928 ], [ -81.631075569918679, 52.293046304775565 ], [ -81.631073014611914, 52.292866505505771 ], [ -81.631366244848635, 52.292864938318857 ], [ -81.631654359777087, 52.292503771888022 ], [ -81.632534043122263, 52.292499063836239 ], [ -81.632531481960655, 52.292319264600209 ], [ -81.632824708501388, 52.292317693803824 ], [ -81.633112808024478, 52.291956523831161 ], [ -81.633699256222741, 52.291953378639164 ], [ -81.633696690393734, 52.291773579426845 ], [ -81.634283136109872, 52.291770431343373 ], [ -81.634280567933772, 52.291590632145777 ], [ -81.635450881396224, 52.291404528121618 ], [ -81.635448308526094, 52.291224728953459 ], [ -81.635741527674284, 52.291223150938563 ], [ -81.636029596388354, 52.290861973883324 ], [ -81.636616029801246, 52.290858814254662 ], [ -81.636613452264413, 52.290679015110406 ], [ -81.63690666774319, 52.290677434214395 ], [ -81.63690408904651, 52.290497635074736 ], [ -81.637197303311183, 52.290496053461005 ], [ -81.637194723454684, 52.290316254325944 ], [ -81.637487936505238, 52.290314671994508 ], [ -81.637485355488948, 52.290134872864044 ], [ -81.637778567325398, 52.290133289814918 ], [ -81.637775985149332, 52.289953490689051 ], [ -81.638069195771692, 52.289951906922234 ], [ -81.638066612435878, 52.289772107800985 ], [ -81.638359821844134, 52.289770523316484 ], [ -81.638357237348586, 52.289590724199854 ], [ -81.638650445542737, 52.289589138997684 ], [ -81.638647859887513, 52.289409339885665 ], [ -81.638941066867559, 52.289407753965847 ], [ -81.638938480052659, 52.289227954858454 ], [ -81.639231685818601, 52.28922636822098 ], [ -81.639519713261734, 52.288865182664971 ], [ -81.640106119909959, 52.288862005791607 ], [ -81.64010352842935, 52.288682206708351 ], [ -81.640396730525723, 52.288680617190117 ], [ -81.640394137885565, 52.288500818111515 ], [ -81.640687338767833, 52.288499227875676 ], [ -81.640975349677078, 52.288138038778982 ], [ -81.641561746557855, 52.288134854709099 ], [ -81.641559149252387, 52.28795505565472 ], [ -81.641852346464972, 52.287953462538297 ], [ -81.641849748000055, 52.287773663488572 ], [ -81.64214294399855, 52.287772069654572 ], [ -81.642430938374829, 52.287410877017614 ], [ -81.643017325487946, 52.287407685751603 ], [ -81.643014722358089, 52.2872278867262 ], [ -81.643307914686829, 52.287226290011752 ], [ -81.643305310397665, 52.287046490991038 ], [ -81.643598501512272, 52.28704489355907 ], [ -81.643595896063772, 52.286865094543053 ], [ -81.643889085964261, 52.286863496393572 ], [ -81.643886479356496, 52.286683697382252 ], [ -81.644470247748046, 52.28650069992419 ], [ -81.644451985840703, 52.285242106793341 ], [ -81.644158806674909, 52.285243706305671 ], [ -81.6441666294821, 52.285783103426262 ], [ -81.643873446729032, 52.285784702241727 ], [ -81.643878659697734, 52.286144300314746 ], [ -81.643585474543968, 52.286145898423037 ], [ -81.643588079882804, 52.286325697461443 ], [ -81.643294893514962, 52.286327294852228 ], [ -81.643297497694533, 52.286507093895338 ], [ -81.643004310112616, 52.286508690568624 ], [ -81.643006913132893, 52.286688489616417 ], [ -81.6427137243369, 52.286690085572197 ], [ -81.642716326197885, 52.286869884624679 ], [ -81.642423136187801, 52.286871479862938 ], [ -81.642135145207561, 52.287232672502654 ], [ -81.641548760303763, 52.287235859381212 ], [ -81.641551357499921, 52.287415658457995 ], [ -81.641258163820268, 52.287417250815793 ], [ -81.640970159840592, 52.287778440623583 ], [ -81.640383767597712, 52.287781621741104 ], [ -81.640095754151147, 52.288142809424983 ], [ -81.639216158379796, 52.28814757352044 ], [ -81.639213570568643, 52.2879677743841 ], [ -81.638920373110508, 52.287969360950001 ], [ -81.638917786513346, 52.287789561797844 ], [ -81.638624590214789, 52.287791147625697 ], [ -81.638622004831632, 52.287611348457716 ], [ -81.638033031543955, 52.287434718715495 ], [ -81.638014951427891, 52.286176124200779 ], [ -81.637721765728216, 52.286177707753296 ], [ -81.637714021074643, 52.285638309989558 ], [ -81.6380072032144, 52.285636726467658 ], [ -81.637991707521138, 52.284557930850312 ], [ -81.638284882514199, 52.284556346661894 ], [ -81.638277131474837, 52.284016948808286 ], [ -81.638570302881092, 52.284015363922755 ], [ -81.638565133284445, 52.283655765346126 ], [ -81.638858302290529, 52.283654179753299 ], [ -81.638853130429723, 52.283294581174715 ], [ -81.639146297035637, 52.2832929948746 ], [ -81.639135948894776, 52.28257379769115 ], [ -81.639429110727718, 52.282572210704224 ], [ -81.639423934447805, 52.282212612099379 ], [ -81.639717093880734, 52.282211024405221 ], [ -81.639706736902255, 52.281491827169262 ], [ -81.640290454646291, 52.281308850377286 ], [ -81.64028527162975, 52.28094925175548 ], [ -81.640578422676512, 52.280947661949973 ], [ -81.64057064479735, 52.280408264006013 ], [ -81.641154344747022, 52.280225282968203 ], [ -81.641149154940251, 52.279865684340727 ], [ -81.641732845372758, 52.279682700457649 ], [ -81.641727650985018, 52.279323101837605 ], [ -81.642020791219096, 52.279321508486241 ], [ -81.642015594568306, 52.278961909864357 ], [ -81.642308732402725, 52.278960315805918 ], [ -81.642303533488999, 52.278600717182179 ], [ -81.642596668923773, 52.278599122416701 ], [ -81.642581065722368, 52.277520326472761 ], [ -81.642874194013217, 52.277518731041376 ], [ -81.642868990792863, 52.277159132369185 ], [ -81.643162116684238, 52.277157536230796 ], [ -81.643156911201331, 52.276797937556765 ], [ -81.643450034693302, 52.276796340711414 ], [ -81.643444826947942, 52.27643674203555 ], [ -81.64373794804051, 52.276435144483244 ], [ -81.643730133070036, 52.275895746458367 ], [ -81.64402325057732, 52.27589414820941 ], [ -81.644020644456035, 52.275714348866899 ], [ -81.644604268550736, 52.275531350879518 ], [ -81.644596443318235, 52.274991952863381 ], [ -81.644889554813687, 52.274990352483421 ], [ -81.645177444853729, 52.274629152711817 ], [ -81.645763662963844, 52.27462594835572 ], [ -81.645761049919372, 52.274446149035889 ], [ -81.646054157747344, 52.274444545776944 ], [ -81.64605154354453, 52.274264746461839 ], [ -81.646344650159179, 52.274263142485751 ], [ -81.646342034798039, 52.274083343175377 ], [ -81.646635140199336, 52.274081738482153 ], [ -81.646632523679912, 52.273901939176525 ], [ -81.646925627867887, 52.273900333766171 ], [ -81.646923010190179, 52.273720534465291 ], [ -81.647216113164816, 52.273718928337814 ], [ -81.647213494328881, 52.273539129041673 ], [ -81.647506596090182, 52.273537522197088 ], [ -81.647503976096004, 52.273357722905715 ], [ -81.647797076643982, 52.273356115344043 ], [ -81.648084932515729, 52.27299490849677 ], [ -81.648964226796835, 52.272990079326888 ], [ -81.648961600956696, 52.272810280070537 ], [ -81.64925469780944, 52.272808668902741 ], [ -81.649244189982298, 52.27208947186287 ], [ -81.64895109787237, 52.272091082989142 ], [ -81.648948472170332, 52.271911283704789 ], [ -81.649241563094606, 52.27190967258889 ], [ -81.649236309402127, 52.271550074024155 ], [ -81.649529397927466, 52.271548462201622 ], [ -81.649521514039122, 52.271009064343652 ], [ -81.649228429070646, 52.271010676135042 ], [ -81.649233682597327, 52.271370274733393 ], [ -81.648940595229988, 52.271371885818141 ], [ -81.648943220849148, 52.271551685119299 ], [ -81.648650132268543, 52.271553295487017 ], [ -81.648652756729689, 52.271733094792957 ], [ -81.648069199231841, 52.27191611268799 ], [ -81.648074443549461, 52.27227571131332 ], [ -81.647781350143418, 52.272277319540287 ], [ -81.647783971157921, 52.272457118854902 ], [ -81.647490876538612, 52.272458726364803 ], [ -81.647493496394972, 52.272638525684172 ], [ -81.646909922214761, 52.272821537876858 ], [ -81.646915157322312, 52.273181136529033 ], [ -81.646622057877451, 52.273182741898012 ], [ -81.64633418887972, 52.273543945210669 ], [ -81.645747985109367, 52.27354715235272 ], [ -81.645460106652905, 52.273908353543284 ], [ -81.644287689186299, 52.27391475627055 ], [ -81.644285082180772, 52.273734956876737 ], [ -81.643991978931325, 52.273736555729577 ], [ -81.643989373139021, 52.27355675631987 ], [ -81.643696271047929, 52.273558354434954 ], [ -81.64339796217017, 52.273200352945182 ], [ -81.642811762594135, 52.273203545496912 ], [ -81.642809161627071, 52.273023746029239 ], [ -81.642516062983759, 52.273025341203663 ], [ -81.642217767204002, 52.272667336657385 ], [ -81.641631574523615, 52.272670523327932 ], [ -81.64162897838149, 52.272490723802385 ], [ -81.641335883186045, 52.272492316036228 ], [ -81.641333288256931, 52.272312516494829 ], [ -81.641040194219883, 52.272314107990987 ], [ -81.641037600503779, 52.272134308433728 ], [ -81.640448823401755, 52.271957689639926 ], [ -81.640435867223275, 52.271058691639205 ], [ -81.640728953015284, 52.271057101669612 ], [ -81.6407237683635, 52.270697502450631 ], [ -81.641016851757058, 52.270695911774133 ], [ -81.641011664843191, 52.270336312553255 ], [ -81.641304745838312, 52.270334721169881 ], [ -81.641302151236758, 52.2701549215613 ], [ -81.638664431969573, 52.270169217734001 ], [ -81.63866701590112, 52.27034901743469 ], [ -81.638373934660933, 52.270350602271677 ], [ -81.638379100234431, 52.2707102016767 ], [ -81.638672183845799, 52.270708616819284 ], [ -81.63867993596665, 52.271248015854205 ], [ -81.638386848798476, 52.271249600742237 ], [ -81.638389431707495, 52.271429400419564 ], [ -81.638096343326509, 52.27143098459041 ], [ -81.637808416075316, 52.271792167412528 ], [ -81.638394597607046, 52.271788999757412 ], [ -81.638392014643685, 52.271609200091291 ], [ -81.638685104183139, 52.27160761518283 ], [ -81.638687688332169, 52.271787414838741 ], [ -81.63986005096065, 52.271781067889897 ], [ -81.639862639879539, 52.271960867499317 ], [ -81.640155731654261, 52.271959278933323 ], [ -81.64015832178606, 52.272139078526941 ], [ -81.640747100155565, 52.272315698759726 ], [ -81.640754877910481, 52.272855097428653 ], [ -81.641341073126156, 52.272851915102251 ], [ -81.641343668137154, 52.273031714626846 ], [ -81.641636766889789, 52.273030122362222 ], [ -81.64193506046206, 52.273388128361532 ], [ -81.642521262573737, 52.27338494015396 ], [ -81.64252386240976, 52.273564739620703 ], [ -81.643112669018535, 52.273741347923334 ], [ -81.643143897973246, 52.275898940773715 ], [ -81.642850780383782, 52.275900536840105 ], [ -81.642853381788683, 52.276080336218193 ], [ -81.642560262985896, 52.276081931567347 ], [ -81.642565463505875, 52.27644153032729 ], [ -81.642272342303784, 52.276443124969468 ], [ -81.642274941418819, 52.276622924351322 ], [ -81.641691293331036, 52.276805910870394 ], [ -81.641699083806074, 52.277345309027162 ], [ -81.641405956591925, 52.277346901538039 ], [ -81.641411148006426, 52.277706500301754 ], [ -81.641118018392859, 52.277708092105584 ], [ -81.640840449417638, 52.278788479461696 ], [ -81.640256766988202, 52.278971458935324 ], [ -81.640267131930699, 52.279690656402835 ], [ -81.639683435294288, 52.279873633060944 ], [ -81.639693791292089, 52.280592830498385 ], [ -81.639400642536131, 52.28059441810047 ], [ -81.639405818325912, 52.280954016806071 ], [ -81.639112667170139, 52.280955603700967 ], [ -81.639117840696201, 52.281315202404627 ], [ -81.638824687140612, 52.281316788592314 ], [ -81.638832444074808, 52.281856186636496 ], [ -81.638248713090348, 52.282039156247443 ], [ -81.638253879824703, 52.282398754945241 ], [ -81.637960719069355, 52.282400339011176 ], [ -81.637965883539607, 52.282759937706992 ], [ -81.637672720384259, 52.282761521065645 ], [ -81.637683044905017, 52.283480718430944 ], [ -81.637389876976698, 52.28348230110268 ], [ -81.637397617092944, 52.284021699098481 ], [ -81.637104445578018, 52.284023281073083 ], [ -81.637109603418196, 52.284382879729357 ], [ -81.636816429503071, 52.284384460996591 ], [ -81.636834474492446, 52.285643056188604 ], [ -81.636541292244118, 52.28564463679939 ], [ -81.636567061239248, 52.287442629556992 ], [ -81.636273867096904, 52.287444209541817 ], [ -81.63628932267487, 52.288523004988839 ], [ -81.635996121384679, 52.288524584306913 ], [ -81.636001271087181, 52.288884182764839 ], [ -81.635708067396223, 52.28888576137539 ], [ -81.635715788592563, 52.289425159050836 ], [ -81.635422581313904, 52.289426736964032 ], [ -81.63542772653976, 52.289786335406681 ], [ -81.635134516860219, 52.289787912612326 ], [ -81.635137088326815, 52.289967711835438 ], [ -81.634553235632524, 52.290150663321207 ], [ -81.63455837395324, 52.290510261780042 ], [ -81.63426515944478, 52.29051183684264 ], [ -81.63426772745872, 52.290691636073817 ], [ -81.633974511736255, 52.290693210418652 ], [ -81.633686427347783, 52.291054382521715 ], [ -81.63309999101989, 52.291057527612374 ], [ -81.632811897162341, 52.291418697590359 ], [ -81.632225455924569, 52.291421838353976 ], [ -81.631937352597717, 52.291783006206771 ], [ -81.631057683336024, 52.291787709769558 ], [ -81.630769568138589, 52.292148874789234 ], [ -81.629889891431844, 52.292153569677268 ], [ -81.629892441882703, 52.292333369009782 ], [ -81.628426307566045, 52.292341179314484 ], [ -81.6284288521082, 52.292520978691748 ], [ -81.627842395819798, 52.292524097738045 ], [ -81.627844938014491, 52.292703897129797 ], [ -81.625499102294739, 52.292716344276805 ], [ -81.62550163501912, 52.292896143743178 ], [ -81.624035480891948, 52.29290389960115 ], [ -81.624038007707242, 52.293083699111932 ], [ -81.622571846979525, 52.293091436820475 ], [ -81.622574367885605, 52.293271236375531 ], [ -81.619642032570312, 52.293286657293734 ], [ -81.619644541631146, 52.293466456942575 ], [ -81.615536758695612, 52.293308124278077 ], [ -81.615534266281557, 52.293128324485316 ], [ -81.614945310525528, 52.292951579711875 ], [ -81.614940330577141, 52.292591980059036 ], [ -81.61376741302351, 52.292598081294528 ], [ -81.613769898236058, 52.292777881163062 ], [ -81.612596975515402, 52.292783970790325 ], [ -81.612599456005512, 52.292963770692516 ], [ -81.612012992114202, 52.292966811157903 ], [ -81.612015470256097, 52.293146611074107 ], [ -81.61054930413583, 52.29315419954689 ], [ -81.610551776367899, 52.293333999506395 ], [ -81.610258541878565, 52.293335515026769 ], [ -81.610256070833671, 52.293155715057487 ], [ -81.609669604151364, 52.293158743894757 ], [ -81.609667135506811, 52.292978943900359 ], [ -81.609078204850633, 52.292802169786718 ], [ -81.609070806273579, 52.292262769694759 ], [ -81.609364033743958, 52.292261257144816 ], [ -81.609647387285619, 52.29154054374407 ], [ -81.610231361814968, 52.291357715057302 ], [ -81.610226420323258, 52.290998114990202 ], [ -81.610519639380243, 52.290996599596795 ], [ -81.610517167486378, 52.290816799564624 ], [ -81.610810385330325, 52.29081528345305 ], [ -81.610807912275476, 52.290635483425064 ], [ -81.611101128906398, 52.290633966595344 ], [ -81.611098654690565, 52.290454166571557 ], [ -81.611391870108477, 52.290452649023699 ], [ -81.611389394731702, 52.290272849004076 ], [ -81.611682608936576, 52.290271330738101 ], [ -81.611680132398902, 52.290091530722677 ], [ -81.611973345390751, 52.290090011738592 ], [ -81.611970867692179, 52.289910211727374 ], [ -81.612264079471004, 52.289908692025158 ], [ -81.612261600611546, 52.28972889201814 ], [ -81.612845540509852, 52.289546050456636 ], [ -81.612840578173774, 52.289186450453855 ], [ -81.612547371194808, 52.289187971572652 ], [ -81.612259121778209, 52.289549092005544 ], [ -81.611672702942229, 52.289552130642896 ], [ -81.611670226508792, 52.289372330605126 ], [ -81.611081335908807, 52.289195566248445 ], [ -81.611073913964304, 52.288656166026129 ], [ -81.610780710389591, 52.288657682748322 ], [ -81.61078812877345, 52.289197082999962 ], [ -81.610494921612087, 52.289198599023607 ], [ -81.610502336669427, 52.289737999254243 ], [ -81.610209125921287, 52.289739514579296 ], [ -81.610214067049, 52.290099114724647 ], [ -81.609920853900974, 52.290100629341332 ], [ -81.609923323316863, 52.290280429415375 ], [ -81.609339361636842, 52.290463256572515 ], [ -81.609344295850548, 52.29082285673168 ], [ -81.608760324648571, 52.291005681038371 ], [ -81.608765254269912, 52.291365281202992 ], [ -81.608472032683039, 52.291366792248319 ], [ -81.608183736047096, 52.291727902746921 ], [ -81.607597287995503, 52.291730921236777 ], [ -81.607599748148644, 52.291910721338446 ], [ -81.605547170843607, 52.291921263190609 ], [ -81.60525884680132, 52.292282366599508 ], [ -81.604085935316292, 52.292288371665641 ], [ -81.604088381301651, 52.292468171866879 ], [ -81.603208693856189, 52.292472668051857 ], [ -81.602920347207046, 52.292833765787201 ], [ -81.602040652330345, 52.292838253294391 ], [ -81.602043090082773, 52.293018053546405 ], [ -81.600870158472731, 52.293024026736155 ], [ -81.600867725468959, 52.292844226445638 ], [ -81.600281261884589, 52.292847208653406 ], [ -81.600283692514026, 52.293027008963115 ], [ -81.599110760289776, 52.293032964681267 ], [ -81.599108334408982, 52.29285316433316 ], [ -81.597935406524911, 52.292859108365249 ], [ -81.597932985418296, 52.292679307973259 ], [ -81.597053292799131, 52.292683758324863 ], [ -81.597050875279422, 52.292503957898603 ], [ -81.59646441578036, 52.292506921140692 ], [ -81.596466830925792, 52.292686721586058 ], [ -81.595000675797863, 52.292694116999463 ], [ -81.594998266588163, 52.292514316506448 ], [ -81.593825346777962, 52.29252021969554 ], [ -81.593827751239061, 52.292700020226611 ], [ -81.590308975136594, 52.292717660022205 ], [ -81.590306584921308, 52.292537859377461 ], [ -81.588547202633308, 52.292546639907826 ], [ -81.588544819566039, 52.292366839200923 ], [ -81.587665131644712, 52.292371219610217 ], [ -81.58766751115057, 52.29255102034535 ], [ -81.585908127509285, 52.292559761565059 ], [ -81.585910499917219, 52.292739562350945 ], [ -81.58620373177375, 52.292738107291562 ], [ -81.586208479038888, 52.293097708827823 ], [ -81.585915244808007, 52.293099163905964 ], [ -81.585626753168413, 52.29346021980755 ], [ -81.584747043127962, 52.293464578546249 ], [ -81.584449073279316, 52.293106428376817 ], [ -81.583569370063145, 52.293110778323431 ], [ -81.583567007102744, 52.292930977473873 ], [ -81.58327377383479, 52.29293242599077 ], [ -81.583271412086432, 52.292752625126283 ], [ -81.582684947850296, 52.292755519957446 ], [ -81.582682588501115, 52.292575719068722 ], [ -81.580043508895415, 52.292588709690072 ], [ -81.579754972684128, 52.292949751410411 ], [ -81.578582038175611, 52.292955503254667 ], [ -81.578584380953785, 52.293135304262286 ], [ -81.577997911177164, 52.29313817583499 ], [ -81.578000251605587, 52.293317976855541 ], [ -81.576827307008045, 52.293323711301959 ], [ -81.576829642712227, 52.293503512353873 ], [ -81.574190505245966, 52.293516372353217 ], [ -81.57418818022677, 52.293336571218433 ], [ -81.573894943795239, 52.293337996458028 ], [ -81.573597062123056, 52.292979818646572 ], [ -81.573010593886565, 52.292982665449088 ], [ -81.573012914108034, 52.293162466631756 ], [ -81.571839972593338, 52.293168151537515 ], [ -81.571904815722959, 52.298202583413065 ], [ -81.572784621635549, 52.298198320056485 ] ] ] } },
{ "type": "Feature", "properties": { }, "geometry": { "type": "Polygon", "coordinates": [ [ [ -81.649767279535553, 52.26777106380559 ], [ -81.649764650940227, 52.267591264417987 ], [ -81.649178526079169, 52.267594488333465 ], [ -81.649181152303768, 52.267774287741844 ], [ -81.649767279535553, 52.26777106380559 ] ] ] } },
{ "type": "Feature", "properties": { }, "geometry": { "type": "Polygon", "coordinates": [ [ [ -81.626029039285783, 52.267899306194415 ], [ -81.626026506706523, 52.267719505980551 ], [ -81.62544037745009, 52.267722612072191 ], [ -81.625442907658524, 52.267902412306064 ], [ -81.626029039285783, 52.267899306194415 ] ] ] } },
{ "type": "Feature", "properties": { }, "geometry": { "type": "Polygon", "coordinates": [ [ [ -81.653864876702713, 52.267388816304745 ], [ -81.653862231567899, 52.267209017051833 ], [ -81.654155291197881, 52.267207393841865 ], [ -81.654443055872619, 52.26684617142385 ], [ -81.655322227399992, 52.266841295311174 ], [ -81.655609980221669, 52.266480070066343 ], [ -81.656196089636879, 52.266476814275549 ], [ -81.656193435158997, 52.266297015078436 ], [ -81.656779542091968, 52.266293756399556 ], [ -81.656776885271498, 52.266113957217847 ], [ -81.658242146188371, 52.266105797846087 ], [ -81.658239483469615, 52.265925998711346 ], [ -81.657946432527453, 52.26592763202968 ], [ -81.657943771021934, 52.265747832878809 ], [ -81.657357671424094, 52.265751097312702 ], [ -81.657360330559143, 52.265930896484612 ], [ -81.656481177396955, 52.265935787712607 ], [ -81.656478521817604, 52.265755988509163 ], [ -81.655892421940266, 52.265759245670559 ], [ -81.655316925472221, 52.266481696870834 ], [ -81.653851651306951, 52.266489819984244 ], [ -81.653854296330451, 52.266669619259538 ], [ -81.652975127941474, 52.26667448443169 ], [ -81.652972486473828, 52.266494685125032 ], [ -81.652093321390637, 52.266499543720386 ], [ -81.652095959302414, 52.266679343058335 ], [ -81.651509846737625, 52.266682578506391 ], [ -81.651507211196432, 52.266502779147586 ], [ -81.651214156057733, 52.266504395770291 ], [ -81.651216790413642, 52.266684195139511 ], [ -81.650923734061934, 52.266685811045342 ], [ -81.651222059208564, 52.267043793861127 ], [ -81.651515117903173, 52.267042177207173 ], [ -81.651512482306529, 52.266862377859596 ], [ -81.652098597241931, 52.266859142390693 ], [ -81.652101235209201, 52.267038941717438 ], [ -81.652394293820606, 52.267037322881627 ], [ -81.652692633163355, 52.26739530191351 ], [ -81.653864876702713, 52.267388816304745 ] ] ] } },
{ "type": "Feature", "properties": { }, "geometry": { "type": "Polygon", "coordinates": [ [ [ -81.675458400309992, 52.261153582579894 ], [ -81.675154459278446, 52.260436063820265 ], [ -81.674565703555018, 52.260259614731382 ], [ -81.67456843175718, 52.26043941344323 ], [ -81.674275417953524, 52.260441087164047 ], [ -81.674283599177599, 52.260980483298269 ], [ -81.674576616535859, 52.260978809545094 ], [ -81.674579344852788, 52.261158608234503 ], [ -81.675458400309992, 52.261153582579894 ] ] ] } },
{ "type": "Feature", "properties": { }, "geometry": { "type": "Polygon", "coordinates": [ [ [ -81.653908457360558, 52.210567111596376 ], [ -81.654195861997962, 52.210205887529881 ], [ -81.653027760477343, 52.210392172509842 ], [ -81.653030396839355, 52.210571973533391 ], [ -81.653908457360558, 52.210567111596376 ] ] ] } },
{ "type": "Feature", "properties": { }, "geometry": { "type": "Polygon", "coordinates": [ [ [ -81.655073915097844, 52.210201016945817 ], [ -81.65507127052156, 52.210021215984192 ], [ -81.654193220965809, 52.210026086536885 ], [ -81.654195861997962, 52.210205887529881 ], [ -81.655073915097844, 52.210201016945817 ] ] ] } },
{ "type": "Feature", "properties": { }, "geometry": { "type": "Polygon", "coordinates": [ [ [ -81.88934253729748, 52.200576270688671 ], [ -81.889338948272396, 52.200396479350012 ], [ -81.889631552026785, 52.200394273710728 ], [ -81.889627961858949, 52.200214482380595 ], [ -81.889042756673376, 52.200218892905333 ], [ -81.88904634448032, 52.200398684263867 ], [ -81.888753740650543, 52.200400888452265 ], [ -81.888757327314721, 52.200580679819325 ], [ -81.88934253729748, 52.200576270688671 ] ] ] } },
{ "type": "Feature", "properties": { }, "geometry": { "type": "Polygon", "coordinates": [ [ [ -82.302300737664297, 52.131284548185029 ], [ -82.302582361377176, 52.130921784395404 ], [ -82.301998145073242, 52.130928236625046 ], [ -82.301992904124958, 52.130748467938901 ], [ -82.301700797065536, 52.130751692947925 ], [ -82.30139821291948, 52.130395379760664 ], [ -82.301106108100157, 52.130398603281485 ], [ -82.301111345413545, 52.130578372041647 ], [ -82.300527133260118, 52.130584816954716 ], [ -82.300532368278425, 52.130764585750427 ], [ -82.300240260944335, 52.130767807142654 ], [ -82.300245494842528, 52.130947575953229 ], [ -82.299666509262636, 52.131133785455148 ], [ -82.29967174092053, 52.131313554295389 ], [ -82.302300737664297, 52.131284548185029 ] ] ] } },
{ "type": "Feature", "properties": { }, "geometry": { "type": "Polygon", "coordinates": [ [ [ -82.303166577461113, 52.130915329272291 ], [ -82.303161331812746, 52.13073556066918 ], [ -82.30345343859716, 52.130732332043344 ], [ -82.30343769845723, 52.130193026261047 ], [ -82.303145595197776, 52.130196254824554 ], [ -82.303150840681084, 52.130376023445308 ], [ -82.302858736191624, 52.130379251306245 ], [ -82.302869224973293, 52.130738788571641 ], [ -82.302577118078844, 52.130742015750755 ], [ -82.302582361377176, 52.130921784395404 ], [ -82.303166577461113, 52.130915329272291 ] ] ] } },
{ "type": "Feature", "properties": { }, "geometry": { "type": "Polygon", "coordinates": [ [ [ -82.304240511122359, 52.12766657608524 ], [ -82.304235261765086, 52.127486807459277 ], [ -82.304527347181221, 52.127483576314219 ], [ -82.30480892929387, 52.127120807259494 ], [ -82.305393095151672, 52.127114341436211 ], [ -82.305387841260583, 52.126934572875768 ], [ -82.305679922932086, 52.126931338900036 ], [ -82.305961492232683, 52.126568567145746 ], [ -82.306550909080912, 52.126741864150226 ], [ -82.306566684851163, 52.127281169581778 ], [ -82.306858768651622, 52.127277932671369 ], [ -82.307703440484431, 52.126189607184372 ], [ -82.307119287256086, 52.126196084371507 ], [ -82.306514100880634, 52.125483484603841 ], [ -82.305053739786473, 52.125499657266396 ], [ -82.305058992062101, 52.125679425894731 ], [ -82.304766918503319, 52.125682658278365 ], [ -82.304777420870494, 52.126042195558973 ], [ -82.304485344907292, 52.126045427260969 ], [ -82.304495845145382, 52.126404964559612 ], [ -82.303916936207216, 52.126591194559083 ], [ -82.303932680094093, 52.127130500569926 ], [ -82.303640596917404, 52.12713373022688 ], [ -82.303651090767673, 52.12749326757956 ], [ -82.304240511122359, 52.12766657608524 ] ] ] } },
{ "type": "Feature", "properties": { }, "geometry": { "type": "Polygon", "coordinates": [ [ [ -82.300411976748393, 52.126629901959795 ], [ -82.300406742992834, 52.126450133028705 ], [ -82.300985665052607, 52.126263920173741 ], [ -82.300975193117154, 52.125904382365071 ], [ -82.300683117613787, 52.125907604644226 ], [ -82.300662179100485, 52.125188528873338 ], [ -82.300370108240827, 52.125191750346367 ], [ -82.300391042055494, 52.125910826200155 ], [ -82.300098966442334, 52.12591404703285 ], [ -82.300119896436399, 52.126633122875361 ], [ -82.300411976748393, 52.126629901959795 ] ] ] } },
{ "type": "Feature", "properties": { }, "geometry": { "type": "Polygon", "coordinates": [ [ [ -82.304182771220525, 52.125689120875961 ], [ -82.304177522468848, 52.125509352185261 ], [ -82.304469594963123, 52.125506121268856 ], [ -82.304459095275647, 52.125146583911352 ], [ -82.303869707518686, 52.124973276208642 ], [ -82.303874954930592, 52.12515304493779 ], [ -82.303582884675521, 52.125156274366191 ], [ -82.303593377315167, 52.125515811848395 ], [ -82.304182771220525, 52.125689120875961 ] ] ] } },
{ "type": "Feature", "properties": { }, "geometry": { "type": "Polygon", "coordinates": [ [ [ -82.302038693342681, 52.122296108293824 ], [ -82.302022975052736, 52.121756801432433 ], [ -82.301730926783435, 52.121760026127355 ], [ -82.301746641550125, 52.122299333050975 ], [ -82.302038693342681, 52.122296108293824 ] ] ] } },
{ "type": "Feature", "properties": { }, "geometry": { "type": "Polygon", "coordinates": [ [ [ -82.309589862015727, 52.12077386336594 ], [ -82.309574053448699, 52.120234557986223 ], [ -82.309282016006605, 52.12023780131544 ], [ -82.309297821050734, 52.120777106757743 ], [ -82.309589862015727, 52.12077386336594 ] ] ] } },
{ "type": "Feature", "properties": { }, "geometry": { "type": "Polygon", "coordinates": [ [ [ -82.308819071646937, 52.124378960467176 ], [ -82.309382123017969, 52.123653401554797 ], [ -82.310258302118868, 52.123643668208267 ], [ -82.310263574985058, 52.123823436520397 ], [ -82.310555635749282, 52.123820190604327 ], [ -82.31054508772317, 52.123460654015936 ], [ -82.310837146083074, 52.123457407418478 ], [ -82.310816045996702, 52.122738334254549 ], [ -82.311108099603402, 52.122735087017482 ], [ -82.31109754754327, 52.122375550441959 ], [ -82.311389598745777, 52.122372302523523 ], [ -82.311373767547366, 52.121832997678737 ], [ -82.311665815171324, 52.121829749099867 ], [ -82.311649980947891, 52.121290444264744 ], [ -82.3119420249934, 52.121287195025474 ], [ -82.311936745855292, 52.121107426756218 ], [ -82.312515550000157, 52.12092115791684 ], [ -82.312489143673915, 52.120022316661846 ], [ -82.311331553453186, 52.120394851166736 ], [ -82.311352660057565, 52.121113924469874 ], [ -82.311060617075697, 52.121117172242037 ], [ -82.310789672133424, 52.1218394926671 ], [ -82.310497624343483, 52.121842739076591 ], [ -82.3105028978311, 52.122022507426742 ], [ -82.309918799736536, 52.122028998118118 ], [ -82.309924070930663, 52.122208766504158 ], [ -82.30963202062604, 52.122212010786029 ], [ -82.309642560831279, 52.12257154758214 ], [ -82.309350508122549, 52.122574791182601 ], [ -82.309068991087102, 52.122937570915944 ], [ -82.308776935918956, 52.122940813111839 ], [ -82.308771669201519, 52.122761044665928 ], [ -82.308479615152606, 52.122764286117814 ], [ -82.308469084232314, 52.122404749166591 ], [ -82.308177032477047, 52.122407989853635 ], [ -82.308166504126476, 52.122048452837177 ], [ -82.308458553532901, 52.122045212191821 ], [ -82.3087400700568, 52.121682433866717 ], [ -82.307863928883862, 52.121692155677678 ], [ -82.307858666076172, 52.121512387127986 ], [ -82.307566620082497, 52.121515626264554 ], [ -82.307577143404316, 52.121875163399721 ], [ -82.307285095006719, 52.12187840185485 ], [ -82.307003565398858, 52.122241176781799 ], [ -82.30583536164103, 52.122254120645053 ], [ -82.305840616448521, 52.122433889316945 ], [ -82.30525651189005, 52.122440356951365 ], [ -82.305261764403781, 52.122620125659004 ], [ -82.304682907495987, 52.122806359185759 ], [ -82.305288027798696, 52.123518969108822 ], [ -82.305872146450824, 52.123512501224759 ], [ -82.305866891312661, 52.123332732588175 ], [ -82.30674306535397, 52.123323025400751 ], [ -82.306737806747464, 52.12314325682074 ], [ -82.307316659249977, 52.122957013244026 ], [ -82.307619238898923, 52.123313311704841 ], [ -82.307040383093621, 52.12349955677859 ], [ -82.307056162933094, 52.124038862403168 ], [ -82.307348225479473, 52.124035624421204 ], [ -82.307353486710838, 52.124215392930132 ], [ -82.308229677542542, 52.124205674582633 ], [ -82.308234942352755, 52.124385443023137 ], [ -82.308819071646937, 52.124378960467176 ] ] ] } },
{ "type": "Feature", "properties": { }, "geometry": { "type": "Polygon", "coordinates": [ [ [ -82.309723804409245, 52.115377563694274 ], [ -82.309707997292932, 52.114838257847012 ], [ -82.309415995128816, 52.114841501273297 ], [ -82.309431798723367, 52.115380807183158 ], [ -82.309723804409245, 52.115377563694274 ] ] ] } },
{ "type": "Feature", "properties": { }, "geometry": { "type": "Polygon", "coordinates": [ [ [ -82.309999999401782, 52.114835013697785 ], [ -82.309989459252691, 52.114475476478567 ], [ -82.309697459491616, 52.11447872058605 ], [ -82.309707997292932, 52.114838257847012 ], [ -82.309999999401782, 52.114835013697785 ] ] ] } },
{ "type": "Feature", "properties": { }, "geometry": { "type": "Polygon", "coordinates": [ [ [ -82.31412503042678, 52.116047897732876 ], [ -82.31410388306044, 52.115328824606486 ], [ -82.314395887860826, 52.115325569550343 ], [ -82.314380024396414, 52.114786264706481 ], [ -82.314672025619615, 52.114783008990216 ], [ -82.314656159132596, 52.114243704156152 ], [ -82.314948156778712, 52.1142404477798 ], [ -82.314937577050301, 52.113880911236173 ], [ -82.314645581751861, 52.113884167570639 ], [ -82.314650870414511, 52.114063935866341 ], [ -82.314066877303603, 52.114070446408405 ], [ -82.314072163673998, 52.114250214740096 ], [ -82.313780165861559, 52.114253468947688 ], [ -82.313785451113517, 52.114433237294413 ], [ -82.313206735934259, 52.114619511965365 ], [ -82.313217302019709, 52.114979048713067 ], [ -82.312925299345494, 52.114982300835557 ], [ -82.313238434855364, 52.115698122137765 ], [ -82.313530442169892, 52.115694869208632 ], [ -82.313535726691285, 52.115874637529146 ], [ -82.31412503042678, 52.116047897732876 ] ] ] } },
{ "type": "Feature", "properties": { }, "geometry": { "type": "Polygon", "coordinates": [ [ [ -82.310281458958499, 52.114472231648143 ], [ -82.310260374628029, 52.113753157222504 ], [ -82.309968379617629, 52.113756401969432 ], [ -82.309989459252691, 52.114475476478567 ], [ -82.310281458958499, 52.114472231648143 ] ] ] } },
{ "type": "Feature", "properties": { }, "geometry": { "type": "Polygon", "coordinates": [ [ [ -82.312256827694412, 52.112112507266218 ], [ -82.312235713374363, 52.111393433119162 ], [ -82.311943734009802, 52.111396682654728 ], [ -82.31196484363511, 52.112115756885395 ], [ -82.312256827694412, 52.112112507266218 ] ] ] } }
]
}
