{
"type": "FeatureCollection",
"name": "river_ice",
"crs": { "type": "name", "properties": { "name": "urn:ogc:def:crs:OGC:1.3:CRS84" } },
"features": [
{ "type": "Feature", "properties": { }, "geometry": { "type": "Polygon", "coordinates": [ [ [ -81.644459812207714, 52.285781503883008 ], [ -81.644451985840703, 52.285242106793341 ], [ -81.644158806674909, 52.285243706305671 ], [ -81.6441666294821, 52.285783103426262 ], [ -81.644459812207714, 52.285781503883008 ] ] ] } },
{ "type": "Feature", "properties": { }, "geometry": { "type": "Polygon", "coordinates": [ [ [ -81.67606084318993, 52.262229020202625 ], [ -81.676055374390856, 52.261869422993463 ], [ -81.6763483975013, 52.261867744823533 ], [ -81.676635947159227, 52.261506468738112 ], [ -81.676049905706819, 52.261509825761898 ], [ -81.675762351251649, 52.261871100436281 ], [ -81.675469328083693, 52.261872777151929 ], [ -81.675466596097166, 52.261692978517338 ], [ -81.674877822457006, 52.261516531083835 ], [ -81.674875092897764, 52.261336732416439 ], [ -81.6751681125684, 52.261335057187445 ], [ -81.675165381852963, 52.261155258525221 ], [ -81.675748685681796, 52.260972107261217 ], [ -81.675740486684802, 52.260432711288885 ], [ -81.675447472995998, 52.260434387918124 ], [ -81.675444741239318, 52.260254589238663 ], [ -81.675737753743306, 52.260252912620224 ], [ -81.675724089466911, 52.259353919192776 ], [ -81.675431082886902, 52.259355595757214 ], [ -81.675428351302614, 52.259175797044094 ], [ -81.673963323895748, 52.259184168906174 ], [ -81.673966049556242, 52.259363967673231 ], [ -81.674259056279752, 52.259362294744179 ], [ -81.674278144999533, 52.260620885881053 ], [ -81.674571159988048, 52.26061921214945 ], [ -81.674590258407505, 52.261877802936056 ], [ -81.674883281661621, 52.261876128401816 ], [ -81.674888740981061, 52.262235725697359 ], [ -81.675474792142964, 52.262232374404299 ], [ -81.675472060098969, 52.262052575780913 ], [ -81.67606084318993, 52.262229020202625 ] ] ] } },
{ "type": "Feature", "properties": { }, "geometry": { "type": "Polygon", "coordinates": [ [ [ -81.795902617939021, 52.24493894460354 ], [ -81.795896183778041, 52.244579356006106 ], [ -81.795603282419876, 52.244581330391917 ], [ -81.795600066573741, 52.244401536072019 ], [ -81.795014266123204, 52.244405482638292 ], [ -81.795017479602123, 52.244585276983599 ], [ -81.794724578142564, 52.2445872491895 ], [ -81.79473100283451, 52.244946837888605 ], [ -81.795902617939021, 52.24493894460354 ] ] ] } }
]
}
